NORAD_CAT_ID,OBJECT_NAME,OBJECT_TYPE,EPOCH,MEAN_MOTION,ECCENTRICITY,INCLINATION,RA_OF_ASC_NODE,ARG_OF_PERICENTER,MEAN_ANOMALY,BSTAR,MEAN_MOTION_DOT,MEAN_MOTION_DDOT,TLE_LINE0,TLE_LINE1,TLE_LINE2,SEMIMAJOR_AXIS,PERIOD,APOGEE,PERIGEE,DECAYED
52617.0,STARLINK-3996,PAYLOAD,2023-10-24 03:10:56,15.08843272,0.0001522,53.2169,203.7384,67.9162,292.1992,0.00068529,0.00010636,0.0,0 STARLINK-3996,1 52617U 22052V   23297.13260241  .00010636  00000-0  68529-3 0  9993,2 52617  53.2169 203.7384 0001522  67.9162 292.1992 15.08843272 80391,6917.87,95.437,540.788,538.682,0.0
52617.0,STARLINK-3996,PAYLOAD,2023-10-25 03:01:42,15.0887589,0.000134,53.2163,199.2751,80.5366,279.5778,0.0010581,0.00016608,0.0,0 STARLINK-3996,1 52617U 22052V   23298.12619144  .00016608  00000-0  10581-2 0  9992,2 52617  53.2163 199.2751 0001340  80.5366 279.5778 15.08875890 80546,6917.771,95.435,540.563,538.709,0.0
52617.0,STARLINK-3996,PAYLOAD,2023-10-26 02:52:29,15.088563,0.0001279,53.2167,194.8151,88.9036,271.2103,0.00051376,7.902e-05,0.0,0 STARLINK-3996,1 52617U 22052V   23299.11978819  .00007902  00000-0  51376-3 0  9994,2 52617  53.2167 194.8151 0001279  88.9036 271.2103 15.08856300 80694,6917.831,95.437,540.58,538.811,0.0
52617.0,STARLINK-3996,PAYLOAD,2023-10-26 20:21:44,15.08849369,0.0001454,53.2171,191.5405,100.2072,259.9084,0.000432,6.596e-05,0.0,0 STARLINK-3996,1 52617U 22052V   23299.84842728  .00006596  00000-0  43200-3 0  9998,2 52617  53.2171 191.5405 0001454 100.2072 259.9084 15.08849369 80427,6917.852,95.437,540.723,538.711,0.0
52617.0,STARLINK-3996,PAYLOAD,2023-10-26 23:32:30,15.08855337,0.0001536,53.2172,190.946,98.6427,261.4739,0.00057623,8.898e-05,0.0,0 STARLINK-3996,1 52617U 22052V   23299.98090407  .00008898  00000-0  57623-3 0  9993,2 52617  53.2172 190.9460 0001536  98.6427 261.4739 15.08855337 80828,6917.834,95.437,540.761,538.636,0.0
52617.0,STARLINK-3996,PAYLOAD,2023-10-27 17:01:45,15.08841375,0.0001538,53.2171,187.6755,94.9178,265.199,0.00014292,1.987e-05,0.0,0 STARLINK-3996,1 52617U 22052V   23300.70954961  .00001987  00000-0  14292-3 0  9997,2 52617  53.2171 187.6755 0001538  94.9178 265.1990 15.08841375 80930,6917.876,95.437,540.805,538.677,0.0
52617.0,STARLINK-3996,PAYLOAD,2023-10-27 21:47:54,15.08838993,0.0001478,53.2169,186.7836,100.6015,259.5144,9.7111e-05,1.258e-05,0.0,0 STARLINK-3996,1 52617U 22052V   23300.90827015  .00001258  00000-0  97111-4 0  9991,2 52617  53.2169 186.7836 0001478 100.6015 259.5144 15.08838993 80586,6917.883,95.438,540.771,538.726,0.0
52617.0,STARLINK-3996,PAYLOAD,2023-10-28 08:55:36,15.08831426,0.0001382,53.2163,184.7076,84.1078,276.0071,-7.3133e-05,-1.451e-05,0.0,0 STARLINK-3996,1 52617U 22052V   23301.37195550 -.00001451  00000-0 -73133-4 0  9990,2 52617  53.2163 184.7076 0001382  84.1078 276.0071 15.08831426 81031,6917.907,95.438,540.728,538.816,0.0
52617.0,STARLINK-3996,PAYLOAD,2023-10-28 23:14:04,15.08846138,0.0001418,53.2163,182.0309,93.4768,266.6386,8.5197e-05,1.068e-05,0.0,0 STARLINK-3996,1 52617U 22052V   23301.96811113  .00001068  00000-0  85197-4 0  9990,2 52617  53.2163 182.0309 0001418  93.4768 266.6386 15.08846138 80747,6917.862,95.437,540.708,538.746,0.0
52617.0,STARLINK-3996,PAYLOAD,2023-10-29 08:46:23,15.08846775,0.000137,53.2161,180.2453,85.407,274.7078,0.00013723,1.897e-05,0.0,0 STARLINK-3996,1 52617U 22052V   23302.36555053  .00001897  00000-0  13723-3 0  9998,2 52617  53.2161 180.2453 0001370  85.4070 274.7078 15.08846775 80801,6917.86,95.437,540.672,538.777,0.0
52617.0,STARLINK-3996,PAYLOAD,2023-10-29 18:18:43,15.08836379,0.0001462,53.2163,178.462,84.7312,275.3847,0.00012821,1.753e-05,0.0,0 STARLINK-3996,1 52617U 22052V   23302.76299791  .00001753  00000-0  12821-3 0  9995,2 52617  53.2163 178.4620 0001462  84.7312 275.3847 15.08836379 81240,6917.891,95.438,540.768,538.745,0.0
52617.0,STARLINK-3996,PAYLOAD,2023-10-29 23:04:51,15.08849605,0.000157,53.2162,177.5685,80.8835,279.2334,0.00031002,4.651e-05,0.0,0 STARLINK-3996,1 52617U 22052V   23302.96171147  .00004651  00000-0  31002-3 0  9993,2 52617  53.2162 177.5685 0001570  80.8835 279.2334 15.08849605 80897,6917.851,95.437,540.802,538.63,0.0
52617.0,STARLINK-3996,PAYLOAD,2023-10-30 00:40:14,15.08849028,0.0001499,53.2161,177.2717,81.1403,278.9759,0.00027311,4.062e-05,0.0,0 STARLINK-3996,1 52617U 22052V   23303.02795089  .00004062  00000-0  27311-3 0  9992,2 52617  53.2161 177.2717 0001499  81.1403 278.9759 15.08849028 81284,6917.853,95.437,540.755,538.681,0.0
52617.0,STARLINK-3996,PAYLOAD,2023-10-30 19:44:53,15.0883086,0.0001399,53.2164,173.7019,71.5397,288.5748,-3.6204e-06,-3.46e-06,0.0,0 STARLINK-3996,1 52617U 22052V   23303.82284319 -.00000346  00000-0 -36204-5 0  9995,2 52617  53.2164 173.7019 0001399  71.5397 288.5748 15.08830860 81400,6917.908,95.438,540.741,538.806,0.0
52617.0,STARLINK-3996,PAYLOAD,2023-10-30 21:20:14,15.0887849,0.000231,53.2162,173.4045,145.0724,215.042,-0.00033855,-5.678e-05,0.0,0 STARLINK-3996,1 52617U 22052V   23303.88905481 -.00005678  00000-0 -33855-3 0  9991,2 52617  53.2162 173.4045 0002310 145.0724 215.0420 15.08878490 81031,6917.763,95.435,541.226,538.03,0.0
52617.0,STARLINK-3996,PAYLOAD,2023-10-31 00:31:02,15.08847081,0.0001519,53.2163,172.8102,91.1024,269.0143,-0.00012869,-2.336e-05,0.0,0 STARLINK-3996,1 52617U 22052V   23304.02155443 -.00002336  00000-0 -12869-3 0  9993,2 52617  53.2163 172.8102 0001519  91.1024 269.0143 15.08847081 81430,6917.859,95.437,540.775,538.673,0.0
52617.0,STARLINK-3996,PAYLOAD,2023-10-31 08:27:58,15.08840228,0.0001422,53.2163,171.3241,88.5234,271.5921,2.4725e-05,1.06e-06,0.0,0 STARLINK-3996,1 52617U 22052V   23304.35275917  .00000106  00000-0  24725-4 0  9994,2 52617  53.2163 171.3241 0001422  88.5234 271.5921 15.08840228 81487,6917.88,95.438,540.728,538.761,0.0
52617.0,STARLINK-3996,PAYLOAD,2023-10-31 14:49:31,15.08838304,0.0001463,53.216,170.1363,85.6885,274.4274,7.646e-05,9.29e-06,0.0,0 STARLINK-3996,1 52617U 22052V   23304.61772106  .00000929  00000-0  76460-4 0  9991,2 52617  53.2160 170.1363 0001463  85.6885 274.4274 15.08838304 81149,6917.886,95.438,540.763,538.738,0.0
52617.0,STARLINK-3996,PAYLOAD,2023-10-31 21:11:03,15.08847209,0.0001522,53.2172,168.9461,95.0183,265.0982,8.7832e-05,1.11e-05,0.0,0 STARLINK-3996,1 52617U 22052V   23304.88267687  .00001110  00000-0  87832-4 0  9991,2 52617  53.2172 168.9461 0001522  95.0183 265.0982 15.08847209 81188,6917.858,95.437,540.776,538.67,0.0
52617.0,STARLINK-3996,PAYLOAD,2023-10-31 22:46:26,15.08850315,0.0001417,53.2175,168.6484,88.279,271.8364,0.00011574,1.555e-05,0.0,0 STARLINK-3996,1 52617U 22052V   23304.94891403  .00001555  00000-0  11574-3 0  9999,2 52617  53.2175 168.6484 0001417  88.2790 271.8364 15.08850315 81578,6917.849,95.437,540.694,538.734,0.0
52617.0,STARLINK-3996,PAYLOAD,2023-11-01 08:18:44,15.08855706,0.0001407,53.2172,166.8646,90.1327,269.9826,8.1735e-05,1.014e-05,0.0,0 STARLINK-3996,1 52617U 22052V   23305.34634735  .00001014  00000-0  81735-4 0  9994,2 52617  53.2172 166.8646 0001407  90.1327 269.9826 15.08855706 81257,6917.832,95.437,540.671,538.724,0.0
52617.0,STARLINK-3996,PAYLOAD,2023-11-01 21:01:48,15.08868073,0.0001527,53.2174,164.485,120.4818,239.6325,0.00011971,1.619e-05,0.0,0 STARLINK-3996,1 52617U 22052V   23305.87625654  .00001619  00000-0  11971-3 0  9997,2 52617  53.2174 164.4850 0001527 120.4818 239.6325 15.08868073 81715,6917.795,95.436,540.716,538.603,0.0
52617.0,STARLINK-3996,PAYLOAD,2023-11-02 08:09:30,15.08860707,0.0001317,53.2163,162.4042,122.0184,238.0936,0.00037815,5.739e-05,0.0,0 STARLINK-3996,1 52617U 22052V   23306.33993097  .00005739  00000-0  37815-3 0  9990,2 52617  53.2163 162.4042 0001317 122.0184 238.0936 15.08860707 81408,6917.817,95.436,540.593,538.771,0.0
52617.0,STARLINK-3996,PAYLOAD,2023-11-02 20:52:36,15.0883839,0.0001252,53.2152,160.0266,83.9769,276.1366,-0.00017177,-3.02e-05,0.0,0 STARLINK-3996,1 52617U 22052V   23306.86986570 -.00003020  00000-0 -17177-3 0  9998,2 52617  53.2152 160.0266 0001252  83.9769 276.1366 15.08838390 81863,6917.885,95.438,540.616,538.884,0.0
52617.0,STARLINK-3996,PAYLOAD,2023-11-03 00:03:22,15.08836831,0.0001366,53.2153,159.4315,90.0631,270.0518,-0.00018031,-3.156e-05,0.0,0 STARLINK-3996,1 52617U 22052V   23307.00234673 -.00003156  00000-0 -18031-3 0  9995,2 52617  53.2153 159.4315 0001366  90.0631 270.0518 15.08836831 81505,6917.89,95.438,540.7,538.81,0.0
52617.0,STARLINK-3996,PAYLOAD,2023-11-03 19:08:01,15.08831085,0.0001418,53.216,155.8599,100.8366,259.2786,-0.00018838,-3.284e-05,0.0,0 STARLINK-3996,1 52617U 22052V   23307.79724237 -.00003284  00000-0 -18838-3 0  9998,2 52617  53.2160 155.8599 0001418 100.8366 259.2786 15.08831085 82008,6917.908,95.438,540.754,538.792,0.0
52617.0,STARLINK-3996,PAYLOAD,2023-11-03 20:43:24,15.08833637,0.000163,53.2173,155.5625,105.8134,254.3038,-0.00019638,-3.412e-05,0.0,0 STARLINK-3996,1 52617U 22052V   23307.86348114 -.00003412  00000-0 -19638-3 0  9994,2 52617  53.2173 155.5625 0001630 105.8134 254.3038 15.08833637 81632,6917.9,95.438,540.892,538.637,0.0
52617.0,STARLINK-3996,PAYLOAD,2023-11-03 23:54:10,15.08834492,0.0001603,53.2172,154.9668,106.8217,253.2951,-0.00018096,-3.166e-05,0.0,0 STARLINK-3996,1 52617U 22052V   23307.99596042 -.00003166  00000-0 -18096-3 0  9996,2 52617  53.2172 154.9668 0001603 106.8217 253.2951 15.08834492 81658,6917.897,95.438,540.871,538.653,0.0
52617.0,STARLINK-3996,PAYLOAD,2023-11-04 20:34:11,15.08831315,0.0001479,53.2162,151.1046,97.1674,262.9486,0.00023795,3.5e-05,0.0,0 STARLINK-3996,1 52617U 22052V   23308.85707785  .00003500  00000-0  23795-3 0  9992,2 52617  53.2162 151.1046 0001479  97.1674 262.9486 15.08831315 82164,6917.907,95.438,540.795,538.749,0.0
52617.0,STARLINK-3996,PAYLOAD,2023-11-05 12:28:03,15.08838696,0.0001571,53.2163,148.1315,94.9999,265.1172,0.00037227,5.641e-05,0.0,0 STARLINK-3996,1 52617U 22052V   23309.51948451  .00005641  00000-0  37227-3 0  9996,2 52617  53.2163 148.1315 0001571  94.9999 265.1172 15.08838696 81882,6917.884,95.438,540.836,538.663,0.0
